NORAD_CAT_ID,OBJECT_NAME,OBJECT_TYPE,EPOCH,MEAN_MOTION,ECCENTRICITY,INCLINATION,RA_OF_ASC_NODE,ARG_OF_PERICENTER,MEAN_ANOMALY,BSTAR,MEAN_MOTION_DOT,MEAN_MOTION_DDOT,TLE_LINE0,TLE_LINE1,TLE_LINE2,SEMIMAJOR_AXIS,PERIOD,APOGEE,PERIGEE,DECAYED
50846.0,STARLINK-3308,PAYLOAD,2022-06-13 10:52:57,15.08838827,0.0002728,53.2178,187.9012,36.8329,323.285,8.229400000000001e-06,-1.58e-06,0.0,0 STARLINK-3308,1 50846U 22001AV  22164.45344144 -.00000158  00000-0  82294-5 0  9997,2 50846  53.2178 187.9012 0002728  36.8329 323.2850 15.08838827 24165,6917.884,95.438,541.636,537.862,0.0
50846.0,STARLINK-3308,PAYLOAD,2022-06-13 18:49:53,15.08834875,0.0002644,53.2178,186.4147,35.6502,324.4667,2.4701e-05,1.05e-06,0.0,0 STARLINK-3308,1 50846U 22001AV  22164.78464307  .00000105  00000-0  24701-4 0  9996,2 50846  53.2178 186.4147 0002644  35.6502 324.4667 15.08834875 24219,6917.896,95.438,541.59,537.932,0.0
50846.0,STARLINK-3308,PAYLOAD,2022-06-14 10:43:44,15.08841431,0.0002652,53.2179,183.441,40.4705,319.6484,-1.0722e-05,-4.59e-06,0.0,0 STARLINK-3308,1 50846U 22001AV  22165.44704080 -.00000459  00000-0 -10722-4 0  9997,2 50846  53.2179 183.4410 0002652  40.4705 319.6484 15.08841431 24318,6917.876,95.437,541.576,537.906,0.0
50846.0,STARLINK-3308,PAYLOAD,2022-06-14 18:40:39,15.08842195,0.0002936,53.2184,181.954,40.5824,319.5387,1.4549e-05,-5.7e-07,0.0,0 STARLINK-3308,1 50846U 22001AV  22165.77824001 -.00000057  00000-0  14549-4 0  9993,2 50846  53.2184 181.9540 0002936  40.5824 319.5387 15.08842195 25645,6917.874,95.437,541.77,537.7080000000002,0.0
50846.0,STARLINK-3308,PAYLOAD,2022-06-15 07:23:44,15.08839648,0.0002842,53.2174,179.5754,38.729,321.3905,9.2894e-05,1.19e-05,0.0,0 STARLINK-3308,1 50846U 22001AV  22166.30815715  .00001190  00000-0  92894-4 0  9992,2 50846  53.2174 179.5754 0002842  38.7290 321.3905 15.08839648 24449,6917.880999999999,95.438,541.7130000000002,537.78,0.0
50846.0,STARLINK-3308,PAYLOAD,2022-06-16 00:52:58,15.08844619,0.0002893,53.2174,176.3042,40.7345,319.3863,0.00011663,1.568e-05,0.0,0 STARLINK-3308,1 50846U 22001AV  22167.03679367  .00001568  00000-0  11663-3 0  9997,2 50846  53.2174 176.3042 0002893  40.7345 319.3863 15.08844619 24550,6917.866,95.437,541.7330000000002,537.73,0.0
50846.0,STARLINK-3308,PAYLOAD,2022-06-19 08:22:16,15.08840873,0.0003038,53.2178,161.437,44.9773,315.1465,0.00013925,1.928e-05,0.0,0 STARLINK-3308,1 50846U 22001AV  22170.34880613  .00001928  00000-0  13925-3 0  9996,2 50846  53.2178 161.4370 0003038  44.9773 315.1465 15.08840873 25052,6917.878000000002,95.437,541.844,537.641,0.0
50846.0,STARLINK-3308,PAYLOAD,2022-06-20 08:13:04,15.08836403,0.0003042,53.218,156.9765,46.9175,313.2072,3.5647e-05,2.79e-06,0.0,0 STARLINK-3308,1 50846U 22001AV  22171.34241211  .00000279  00000-0  35647-4 0  9996,2 50846  53.2180 156.9765 0003042  46.9175 313.2072 15.08836403 26480,6917.891,95.438,541.861,537.6519999999998,0.0
50846.0,STARLINK-3308,PAYLOAD,2022-06-20 16:10:00,15.0883707,0.0003047,53.218,155.4895,46.4805,313.644,2.2024e-05,6.2e-07,0.0,0 STARLINK-3308,1 50846U 22001AV  22171.67361291  .00000062  00000-0  22024-4 0  9998,2 50846  53.2180 155.4895 0003047  46.4805 313.6440 15.08837070 25256,6917.889,95.438,541.862,537.646,0.0
50846.0,STARLINK-3308,PAYLOAD,2022-06-21 04:53:04,15.08844744,0.0003036,53.2178,153.1106,47.2525,312.8722,8.6217e-05,1.084e-05,0.0,0 STARLINK-3308,1 50846U 22001AV  22172.20352610  .00001084  00000-0  86217-4 0  9992,2 50846  53.2178 153.1106 0003036  47.2525 312.8722 15.08844744 26610,6917.866,95.437,541.831,537.631,0.0
50846.0,STARLINK-3308,PAYLOAD,2022-06-21 08:03:50,15.08850977,0.0003086,53.218,152.5157,47.8794,312.246,9.5592e-05,1.234e-05,0.0,0 STARLINK-3308,1 50846U 22001AV  22172.33600150  .00001234  00000-0  95592-4 0  9994,2 50846  53.2180 152.5157 0003086  47.8794 312.2460 15.08850977 25359,6917.847,95.437,541.847,537.577,0.0
50846.0,STARLINK-3308,PAYLOAD,2022-06-21 16:00:46,15.08840706,0.0003131,53.218,151.0289,48.3287,311.7973,-2.8729e-06,-3.34e-06,0.0,0 STARLINK-3308,1 50846U 22001AV  22172.66720976 -.00000334  00000-0 -28729-5 0  9990,2 50846  53.2180 151.0289 0003131  48.3287 311.7973 15.08840706 26682,6917.878000000002,95.438,541.909,537.577,0.0
50846.0,STARLINK-3308,PAYLOAD,2022-06-22 07:54:38,15.08835009,0.0003145,53.2178,148.0553,50.0091,310.1177,8.6105e-05,1.082e-05,0.0,0 STARLINK-3308,1 50846U 22001AV  22173.32961113  .00001082  00000-0  86105-4 0  9994,2 50846  53.2178 148.0553 0003145  50.0091 310.1177 15.08835009 25506,6917.896,95.438,541.936,537.585,0.0
50846.0,STARLINK-3308,PAYLOAD,2022-06-22 15:51:33,15.08841681,0.0003175,53.218,146.569,50.3716,309.7556,0.00011474,1.538e-05,0.0,0 STARLINK-3308,1 50846U 22001AV  22173.66080682  .00001538  00000-0  11474-3 0  9996,2 50846  53.2180 146.5690 0003175  50.3716 309.7556 15.08841681 25557,6917.875,95.437,541.937,537.544,0.0
50846.0,STARLINK-3308,PAYLOAD,2022-06-23 04:34:38,15.08848579,0.0003176,53.2177,144.1897,51.7911,308.3367,0.00011855,1.599e-05,0.0,0 STARLINK-3308,1 50846U 22001AV  22174.19072115  .00001599  00000-0  11855-3 0  9997,2 50846  53.2177 144.1897 0003176  51.7911 308.3367 15.08848579 26918,6917.854,95.437,541.9159999999998,537.5219999999998,0.0
50846.0,STARLINK-3308,PAYLOAD,2022-06-23 07:45:24,15.08847375,0.0003083,53.2184,143.5948,52.5938,307.5335,2.0743e-05,4.1e-07,0.0,0 STARLINK-3308,1 50846U 22001AV  22174.32320396  .00000041  00000-0  20743-4 0  9997,2 50846  53.2184 143.5948 0003083  52.5938 307.5335 15.08847375 25650,6917.858,95.437,541.856,537.59,0.0
50846.0,STARLINK-3308,PAYLOAD,2022-06-24 04:25:26,15.08836389,0.0003078,53.2184,139.7299,51.5251,308.6017,5.225100000000001e-05,5.43e-06,0.0,0 STARLINK-3308,1 50846U 22001AV  22175.18433028  .00000543  00000-0  52251-4 0  9995,2 50846  53.2184 139.7299 0003078  51.5251 308.6017 15.08836389 27066,6917.891,95.438,541.886,537.627,0.0
50846.0,STARLINK-3308,PAYLOAD,2022-06-24 07:36:12,15.088415,0.0003101,53.2185,139.1353,51.5684,308.5586,6.505399999999999e-05,7.47e-06,0.0,0 STARLINK-3308,1 50846U 22001AV  22175.31680672  .00000747  00000-0  65054-4 0  9990,2 50846  53.2185 139.1353 0003101  51.5684 308.5586 15.08841500 25800,6917.876,95.437,541.886,537.596,0.0
50846.0,STARLINK-3308,PAYLOAD,2022-06-25 04:16:13,15.08805209,0.0003351,53.2191,135.2697,57.6414,302.4903,0.00043038,6.562e-05,0.0,0 STARLINK-3308,1 50846U 22001AV  22176.17793802  .00006562  00000-0  43038-3 0  9993,2 50846  53.2191 135.2697 0003351  57.6414 302.4903 15.08805209 27219,6917.986999999999,95.44,542.17,537.534,0.0
50846.0,STARLINK-3308,PAYLOAD,2022-06-25 07:26:59,15.0883459,0.0003126,53.2188,134.6756,53.4347,306.6932,-3.905e-05,-9.1e-06,0.0,0 STARLINK-3308,1 50846U 22001AV  22176.31041426 -.00000910  00000-0 -39050-4 0  9990,2 50846  53.2188 134.6756 0003126  53.4347 306.6932 15.08834590 25955,6917.897,95.438,541.924,537.599,0.0
50846.0,STARLINK-3308,PAYLOAD,2022-06-25 13:48:32,15.08834647,0.0003173,53.2188,133.4857,52.8404,307.2877,1.4867e-05,-5.2e-07,0.0,0 STARLINK-3308,1 50846U 22001AV  22176.57537333 -.00000052  00000-0  14867-4 0  9990,2 50846  53.2188 133.4857 0003173  52.8404 307.2877 15.08834647 27278,6917.897,95.438,541.957,537.567,0.0
50846.0,STARLINK-3308,PAYLOAD,2022-06-26 05:42:23,15.0884424,0.0003133,53.2184,130.5121,53.4151,306.7129,6.8314e-05,7.99e-06,0.0,0 STARLINK-3308,1 50846U 22001AV  22177.23776754  .00000799  00000-0  68314-4 0  9999,2 50846  53.2184 130.5121 0003133  53.4151 306.7129 15.08844240 27373,6917.8669999999975,95.437,541.9,537.565,0.0
50846.0,STARLINK-3308,PAYLOAD,2022-06-26 13:39:19,15.08830747,0.0003158,53.2184,129.0254,53.816,306.3124,-4.7329e-05,-1.042e-05,0.0,0 STARLINK-3308,1 50846U 22001AV  22177.56897978 -.00001042  00000-0 -47329-4 0  9994,2 50846  53.2184 129.0254 0003158  53.8160 306.3124 15.08830747 26146,6917.909000000002,95.438,541.9580000000002,537.589,0.0
50846.0,STARLINK-3308,PAYLOAD,2022-06-27 05:33:10,15.08834832,0.0003123,53.2186,126.052,55.2267,304.9019,7.3732e-05,8.85e-06,0.0,0 STARLINK-3308,1 50846U 22001AV  22178.23137651  .00000885  00000-0  73732-4 0  9993,2 50846  53.2186 126.0520 0003123  55.2267 304.9019 15.08834832 27526,6917.896,95.438,541.922,537.601,0.0
50846.0,STARLINK-3308,PAYLOAD,2022-06-28 03:48:35,15.0883308,0.000311,53.2185,121.8886,56.9664,303.1627,-5.3309e-05,-1.137e-05,0.0,0 STARLINK-3308,1 50846U 22001AV  22179.15874437 -.00001137  00000-0 -53309-4 0  9996,2 50846  53.2185 121.8886 0003110  56.9664 303.1627 15.08833080 27663,6917.901999999999,95.438,541.918,537.615,0.0
50846.0,STARLINK-3308,PAYLOAD,2022-06-28 13:20:54,15.08833269,0.0003096,53.2188,120.1047,58.3602,301.7692,-2.7945e-05,-7.33e-06,0.0,0 STARLINK-3308,1 50846U 22001AV  22179.55618521 -.00000733  00000-0 -27945-4 0  9998,2 50846  53.2188 120.1047 0003096  58.3602 301.7692 15.08833269 26448,6917.901,95.438,541.908,537.624,0.0
50846.0,STARLINK-3308,PAYLOAD,2022-06-28 19:42:27,15.08829145,0.000305,53.2187,118.9158,58.0046,302.1243,4.8527e-05,4.84e-06,0.0,0 STARLINK-3308,1 50846U 22001AV  22179.82114706  .00000484  00000-0  48527-4 0  9994,2 50846  53.2187 118.9158 0003050  58.0046 302.1243 15.08829145 26483,6917.9140000000025,95.438,541.889,537.669,0.0
50846.0,STARLINK-3308,PAYLOAD,2022-06-29 05:14:45,15.08837395,0.0003054,53.2187,117.1316,58.5628,301.5663,3.3502e-05,2.45e-06,0.0,0 STARLINK-3308,1 50846U 22001AV  22180.21858402  .00000245  00000-0  33502-4 0  9999,2 50846  53.2187 117.1316 0003054  58.5628 301.5663 15.08837395 27829,6917.888000000001,95.438,541.866,537.641,0.0
50846.0,STARLINK-3308,PAYLOAD,2022-06-29 13:11:41,15.08839312,0.0003033,53.2187,115.6451,58.9475,301.1814,4.922e-05,4.95e-06,0.0,0 STARLINK-3308,1 50846U 22001AV  22180.54978257  .00000495  00000-0  49220-4 0  9997,2 50846  53.2187 115.6451 0003033  58.9475 301.1814 15.08839312 26591,6917.882,95.438,541.846,537.649,0.0
